{
    "links": {
        "self": "http://www.neowsapp.com/rest/v1/neo/3549563?api_key=iIulBulltgU6a56xZRHN4H3l9WmuAYTsLGpBGhQ2"
    },
    "id": "3549563",
    "neo_reference_id": "3549563",
    "name": "(2010 TL167)",
    "designation": "2010 TL167",
    "nasa_jpl_url": "http://ssd.jpl.nasa.gov/sbdb.cgi?sstr=3549563",
    "absolute_magnitude_h": 22.4,
    "estimated_diameter": {
        "kilometers": {
            "estimated_diameter_min": 0.0880146521,
            "estimated_diameter_max": 0.1968067451
        },
        "meters": {
            "estimated_diameter_min": 88.0146520901,
            "estimated_diameter_max": 196.8067450894
        },
        "miles": {
            "estimated_diameter_min": 0.0546897524,
            "estimated_diameter_max": 0.122290004
        },
        "feet": {
            "estimated_diameter_min": 288.7619911632,
            "estimated_diameter_max": 645.6914415591
        }
    },
    "is_potentially_hazardous_asteroid": false,
    "close_approach_data": [
        {
            "close_approach_date": "2009-09-25",
            "close_approach_date_full": "2009-Sep-25 09:44",
            "epoch_date_close_approach": 1253871840000,
            "relative_velocity": {
                "kilometers_per_second": "20.1071478223",
                "kilometers_per_hour": "72385.732160446",
                "miles_per_hour": "44977.678963806"
            },
            "miss_distance": {
                "astronomical": "0.1208262636",
                "lunar": "47.0014165404",
                "kilometers": "18075351.674618532",
                "miles": "11231502.7189064616"
            },
            "orbiting_body": "Earth"
        },
        {
            "close_approach_date": "2010-09-28",
            "close_approach_date_full": "2010-Sep-28 21:39",
            "epoch_date_close_approach": 1285709940000,
            "relative_velocity": {
                "kilometers_per_second": "15.2650308889",
                "kilometers_per_hour": "54954.1112001545",
                "miles_per_hour": "34146.3475954515"
            },
            "miss_distance": {
                "astronomical": "0.3059440723",
                "lunar": "119.0122441247",
                "kilometers": "45768581.555206001",
                "miles": "28439277.8315687738"
            },
            "orbiting_body": "Earth"
        }
    ],
    "orbital_data": {
        "orbit_id": "6",
        "orbit_determination_date": "2017-04-06 08:56:14",
        "first_observation_date": "2010-10-14",
        "last_observation_date": "2010-10-16",
        "data_arc_in_days": 2,
        "observations_used": 18,
        "orbit_uncertainty": "9",
        "minimum_orbit_intersection": ".115261",
        "jupiter_tisserand_invariant": "6.012",
        "epoch_osculation": "2455484.5",
        "eccentricity": ".6472183659479248",
        "semi_major_axis": ".9688786250512929",
        "inclination": "12.75630062589635",
        "ascending_node_longitude": "213.0665215964599",
        "orbital_period": "348.3393114768111",
        "perihelion_distance": ".341802584543723",
        "perihelion_argument": "15.55714695403941",
        "aphelion_distance": "1.595954665558863",
        "perihelion_time": "2455390.751972067283",
        "mean_anomaly": "96.88625126086235",
        "mean_motion": "1.033475086328191",
        "equinox": "J2000",
        "orbit_class": {
            "orbit_class_type": "ATE",
            "orbit_class_description": "Near-Earth asteroid orbits similar to that of 2062 Aten",
            "orbit_class_range": "a (semi-major axis) < 1.0 AU; q (perihelion) > 0.983 AU"
        }
    },
    "is_sentry_object": false
}